KINEIS-5E               
1 62083U 24219C   26094.09964522  .00001008  00000+0  16701-3 0  9991
2 62083  97.9225 255.1412 0006420 111.8507 248.3384 14.72318270 72860
KINEIS-5A               
1 62084U 24219D   26094.13390601  .00001747  00000+0  28436-3 0  9996
2 62084  97.9505 255.3387 0005670 131.6301 228.5393 14.72254524 72875
KINEIS-5B               
1 62085U 24219E   26094.26699471  .00002683  00000+0  37743-3 0  9999
2 62085  97.9986 258.5676 0003029 129.3228 230.8251 14.78168810 73084
KINEIS-2C               
1 62929U 25028B   26094.14448451  .00002730  00000+0  43962-3 0  9995
2 62929  98.0280 148.9936 0001096 163.2788 196.8456 14.72309343 61718
KINEIS-2D               
1 62930U 25028C   26094.13744864  .00003628  00000+0  54079-3 0  9991
2 62930  97.9356 147.9972 0004778  89.1283 271.0473 14.75453377 61790
KINEIS-2E               
1 62931U 25028D   26094.10627765  .00003106  00000+0  44981-3 0  9991
2 62931  97.9025 147.3023 0001932  88.5063 271.6369 14.76809614 61849
KINEIS-2A               
1 62932U 25028E   26093.70042039  .00002224  00000+0  36079-3 0  9991
2 62932  98.0947 149.0784 0001512 127.7310 232.4034 14.72177105 61644
KINEIS-2B               
1 62934U 25028G   26094.11132153  .00002813  00000+0  44345-3 0  9995
2 62934  97.9735 148.3021 0004250  49.6890 310.4689 14.73200656 61756
KINEIS-4E               
1 63300U 25056A   26094.30836736  .00000574  00000+0  98569-4 0  9993
2 63300  97.9577 220.1445 0001228 122.1492 237.9835 14.72273511 56258
KINEIS-4C               
1 63301U 25056B   26094.32038525  .00000517  00000+0  89558-4 0  9991
2 63301  97.9636 220.3395 0002711 146.6114 213.5265 14.72303977 56269
KINEIS-4D               
1 63302U 25056C   26094.32512944  .00000160  00000+0  33078-4 0  9994
2 63302  97.9675 220.3214 0002305 159.5364 200.5936 14.72321102 56263
KINEIS-4A               
1 63303U 25056D   26094.28988664 -.00000057  00000+0 -13227-5 0  9998
2 63303  97.9660 220.2184 0002752 154.6690 205.4653 14.72344342 56257
KINEIS-4B               
1 63304U 25056E   26094.27324189  .00000569  00000+0  97717-4 0  9995
2 63304  97.9648 220.2465 0005229 132.6666 227.4983 14.72331233 56241
