[{"OBJECT_NAME":"KINEIS-5E","OBJECT_ID":"2024-219C","EPOCH":"2026-04-04T02:23:29.347008","MEAN_MOTION":14.7231827,"ECCENTRICITY":0.00064202,"INCLINATION":97.9225,"RA_OF_ASC_NODE":255.1412,"ARG_OF_PERICENTER":111.8507,"MEAN_ANOMALY":248.3384,"EPHEMERIS_TYPE":0,"CLASSIFICATION_TYPE":"U","NORAD_CAT_ID":62083,"ELEMENT_SET_NO":999,"REV_AT_EPOCH":7286,"BSTAR":0.00016700799,"MEAN_MOTION_DOT":1.008e-5,"MEAN_MOTION_DDOT":0},{"OBJECT_NAME":"KINEIS-5A","OBJECT_ID":"2024-219D","EPOCH":"2026-04-04T03:12:49.479264","MEAN_MOTION":14.72254524,"ECCENTRICITY":0.00056709,"INCLINATION":97.9505,"RA_OF_ASC_NODE":255.3387,"ARG_OF_PERICENTER":131.6301,"MEAN_ANOMALY":228.5393,"EPHEMERIS_TYPE":0,"CLASSIFICATION_TYPE":"U","NORAD_CAT_ID":62084,"ELEMENT_SET_NO":999,"REV_AT_EPOCH":7287,"BSTAR":0.0002843629,"MEAN_MOTION_DOT":1.747e-5,"MEAN_MOTION_DDOT":0},{"OBJECT_NAME":"KINEIS-5B","OBJECT_ID":"2024-219E","EPOCH":"2026-04-04T06:24:28.342944","MEAN_MOTION":14.7816881,"ECCENTRICITY":0.0003029,"INCLINATION":97.9986,"RA_OF_ASC_NODE":258.5676,"ARG_OF_PERICENTER":129.3228,"MEAN_ANOMALY":230.8251,"EPHEMERIS_TYPE":0,"CLASSIFICATION_TYPE":"U","NORAD_CAT_ID":62085,"ELEMENT_SET_NO":999,"REV_AT_EPOCH":7308,"BSTAR":0.00037742623,"MEAN_MOTION_DOT":2.683e-5,"MEAN_MOTION_DDOT":0},{"OBJECT_NAME":"KINEIS-2C","OBJECT_ID":"2025-028B","EPOCH":"2026-04-04T03:28:03.461664","MEAN_MOTION":14.72309343,"ECCENTRICITY":0.0001096,"INCLINATION":98.028,"RA_OF_ASC_NODE":148.9936,"ARG_OF_PERICENTER":163.2788,"MEAN_ANOMALY":196.8456,"EPHEMERIS_TYPE":0,"CLASSIFICATION_TYPE":"U","NORAD_CAT_ID":62929,"ELEMENT_SET_NO":999,"REV_AT_EPOCH":6171,"BSTAR":0.00043961615,"MEAN_MOTION_DOT":2.73e-5,"MEAN_MOTION_DDOT":0},{"OBJECT_NAME":"KINEIS-2D","OBJECT_ID":"2025-028C","EPOCH":"2026-04-04T03:17:55.562496","MEAN_MOTION":14.75453377,"ECCENTRICITY":0.0004778,"INCLINATION":97.9356,"RA_OF_ASC_NODE":147.9972,"ARG_OF_PERICENTER":89.1283,"MEAN_ANOMALY":271.0473,"EPHEMERIS_TYPE":0,"CLASSIFICATION_TYPE":"U","NORAD_CAT_ID":62930,"ELEMENT_SET_NO":999,"REV_AT_EPOCH":6179,"BSTAR":0.00054079261,"MEAN_MOTION_DOT":3.628e-5,"MEAN_MOTION_DDOT":0},{"OBJECT_NAME":"KINEIS-2E","OBJECT_ID":"2025-028D","EPOCH":"2026-04-04T02:33:02.388960","MEAN_MOTION":14.76809614,"ECCENTRICITY":0.0001932,"INCLINATION":97.9025,"RA_OF_ASC_NODE":147.3023,"ARG_OF_PERICENTER":88.5063,"MEAN_ANOMALY":271.6369,"EPHEMERIS_TYPE":0,"CLASSIFICATION_TYPE":"U","NORAD_CAT_ID":62931,"ELEMENT_SET_NO":999,"REV_AT_EPOCH":6184,"BSTAR":0.00044980916,"MEAN_MOTION_DOT":3.106e-5,"MEAN_MOTION_DDOT":0},{"OBJECT_NAME":"KINEIS-2A","OBJECT_ID":"2025-028E","EPOCH":"2026-04-03T16:48:36.321696","MEAN_MOTION":14.72177105,"ECCENTRICITY":0.00015129,"INCLINATION":98.0947,"RA_OF_ASC_NODE":149.0784,"ARG_OF_PERICENTER":127.731,"MEAN_ANOMALY":232.4034,"EPHEMERIS_TYPE":0,"CLASSIFICATION_TYPE":"U","NORAD_CAT_ID":62932,"ELEMENT_SET_NO":999,"REV_AT_EPOCH":6164,"BSTAR":0.00036079303,"MEAN_MOTION_DOT":2.224e-5,"MEAN_MOTION_DDOT":0},{"OBJECT_NAME":"KINEIS-2B","OBJECT_ID":"2025-028G","EPOCH":"2026-04-04T02:40:18.180192","MEAN_MOTION":14.73200656,"ECCENTRICITY":0.00042509,"INCLINATION":97.9735,"RA_OF_ASC_NODE":148.3021,"ARG_OF_PERICENTER":49.689,"MEAN_ANOMALY":310.4689,"EPHEMERIS_TYPE":0,"CLASSIFICATION_TYPE":"U","NORAD_CAT_ID":62934,"ELEMENT_SET_NO":999,"REV_AT_EPOCH":6175,"BSTAR":0.00044345236,"MEAN_MOTION_DOT":2.813e-5,"MEAN_MOTION_DDOT":0},{"OBJECT_NAME":"KINEIS-4E","OBJECT_ID":"2025-056A","EPOCH":"2026-04-04T07:24:02.939904","MEAN_MOTION":14.72273511,"ECCENTRICITY":0.00012287,"INCLINATION":97.9577,"RA_OF_ASC_NODE":220.1445,"ARG_OF_PERICENTER":122.1492,"MEAN_ANOMALY":237.9835,"EPHEMERIS_TYPE":0,"CLASSIFICATION_TYPE":"U","NORAD_CAT_ID":63300,"ELEMENT_SET_NO":999,"REV_AT_EPOCH":5625,"BSTAR":9.856918e-5,"MEAN_MOTION_DOT":5.74e-6,"MEAN_MOTION_DDOT":0},{"OBJECT_NAME":"KINEIS-4C","OBJECT_ID":"2025-056B","EPOCH":"2026-04-04T07:41:21.285600","MEAN_MOTION":14.72303977,"ECCENTRICITY":0.00027115,"INCLINATION":97.9636,"RA_OF_ASC_NODE":220.3395,"ARG_OF_PERICENTER":146.6114,"MEAN_ANOMALY":213.5265,"EPHEMERIS_TYPE":0,"CLASSIFICATION_TYPE":"U","NORAD_CAT_ID":63301,"ELEMENT_SET_NO":999,"REV_AT_EPOCH":5626,"BSTAR":8.9558429e-5,"MEAN_MOTION_DOT":5.17e-6,"MEAN_MOTION_DDOT":0},{"OBJECT_NAME":"KINEIS-4D","OBJECT_ID":"2025-056C","EPOCH":"2026-04-04T07:48:11.183616","MEAN_MOTION":14.72321102,"ECCENTRICITY":0.00023058,"INCLINATION":97.9675,"RA_OF_ASC_NODE":220.3214,"ARG_OF_PERICENTER":159.5364,"MEAN_ANOMALY":200.5936,"EPHEMERIS_TYPE":0,"CLASSIFICATION_TYPE":"U","NORAD_CAT_ID":63302,"ELEMENT_SET_NO":999,"REV_AT_EPOCH":5626,"BSTAR":3.3077739e-5,"MEAN_MOTION_DOT":1.6e-6,"MEAN_MOTION_DDOT":0},{"OBJECT_NAME":"KINEIS-4A","OBJECT_ID":"2025-056D","EPOCH":"2026-04-04T06:57:26.205696","MEAN_MOTION":14.72344342,"ECCENTRICITY":0.00027528,"INCLINATION":97.966,"RA_OF_ASC_NODE":220.2184,"ARG_OF_PERICENTER":154.669,"MEAN_ANOMALY":205.4653,"EPHEMERIS_TYPE":0,"CLASSIFICATION_TYPE":"U","NORAD_CAT_ID":63303,"ELEMENT_SET_NO":999,"REV_AT_EPOCH":5625,"BSTAR":-1.322739e-6,"MEAN_MOTION_DOT":-5.7e-7,"MEAN_MOTION_DDOT":0},{"OBJECT_NAME":"KINEIS-4B","OBJECT_ID":"2025-056E","EPOCH":"2026-04-04T06:33:28.099296","MEAN_MOTION":14.72331233,"ECCENTRICITY":0.00052296,"INCLINATION":97.9648,"RA_OF_ASC_NODE":220.2465,"ARG_OF_PERICENTER":132.6666,"MEAN_ANOMALY":227.4983,"EPHEMERIS_TYPE":0,"CLASSIFICATION_TYPE":"U","NORAD_CAT_ID":63304,"ELEMENT_SET_NO":999,"REV_AT_EPOCH":5624,"BSTAR":9.7717165e-5,"MEAN_MOTION_DOT":5.69e-6,"MEAN_MOTION_DDOT":0}]
